; 5axisgui.ngc - the historical demo program, unchanged.
; It drills a sphere pattern with W words.  W was never a physical
; quill: no motor is connected to its joint, the kinematics folds
; the word into the XYZ slides, and the head sliding along the tool
; axis is what plunges the rigidly mounted tool.  Watch the slides
; in vismach do the stroke.
;
; The quirk, then and now: the controller keeps W as a separate
; world coordinate, so the programmed XYZ point does not move and
; the preview shows nothing of the stroke; only the W DRO tracks it.
; Drilling the controller can see, check and preview is what the
; tilted work plane family is for (g532-fused-orient-move.ngc,
; g536-orient-then-move.ngc).

        #<r>  =   60 ; sphere radius
  #<rdelta>   =    5 ; safe distance
#<drilldepth> =   -5
    #<zstart> =    0
    #<bctmax> =    8
    #<cctmax> =   16
    #<toolno> =  100
    #<frate>  = 1000

#<bct>    = 0
#<cct>    = 0
#<cdelta> = [360/#<cctmax>]
#<bdelta> = [90/#<bctmax>]

g49
g13.1 ; kinematics 0 (TCP), in case a previous run left a switch active
t#<toolno>m6g43

g53 g0 x0y0z#<zstart>b0c0 w0
g10l20 p0 x0 y0 z[#<r>+#<rdelta>] b0 c0 w0
g0 z0
f#<frate>
o100 while [#<bct> lt #<bctmax>]
       #<b> = [#<bct>*#<bdelta>]
       #<rnow> = [[#<r>+#<rdelta>]*[cos[#<b>]]]
       #<x> = [#<rnow>]
       #<y> = 0
       #<z> = [-#<rnow>]
       g0 x#<x> y#<y>
       m66e0l0 ; force sync
       g0 z#<z>
       g0b[-90+#<b>]
       #<cct> = 0
o200   while [#<cct> lt #<cctmax>]
o210      if [[#<bct> mod 2] eq 0]
              #<c> = [#<cct> * #<cdelta>]
o210      else
              #<c> = [360 - [1+ #<cct>] * #<cdelta>]
o210      endif
          #<x> = [#<rnow>*[cos[#<c>]]]
          #<y> = [#<rnow>*[sin[#<c>]]]
          g0 x#<x> y#<y> z#<z>  c#<c>
          f#<frate>
          g1 w[ #<drilldepth> - #<rdelta>]
          g0 w0
          m66e0l0 ;force sync
          #<cct> = [#<cct>+1]
o200   endwhile
       #<bct> = [#<bct>+1]
o100 endwhile

g0x0y0z0b0c0w0
g53 g0 x0y0z0
m2
