; g532-fused-orient-move.ngc - drill a sphere pattern with tilted work planes:
; g68.2 tilts the plane onto each hole normal, g53.2 solves the head
; orientation without moving (STAY), and one fused g0 turns the head
; and travels to the hole at the same time (TCP motion).  See README
; for the quill and the other demos.

        #<r>  =   60 ; sphere radius
  #<rdelta>   =    5 ; safe distance
#<drilldepth> =   -5
   #<zsafe>   =   20 ; clearance above the ball for start and stop
    #<bctmax> =    8
    #<cctmax> =   16
    #<toolno> =  100
    #<frate>  = 1000

#<bct>    = 0
#<cct>    = 0
#<cdelta> = [360/#<cctmax>]
#<bdelta> = [90/#<bctmax>]

g49
g13.1 ; kinematics 0 (TCP), in case a previous run left a switch active
m65 p0 ; quill unlocked, in case a previous run locked it
t#<toolno>m6g43

g53 g0 x0 y0 z0 b0 c0
g10 l20 p0 x0 y0 z[#<r>+#<rdelta>+#<zsafe>] b0 c0 ; ball center at program origin, we park above it
f#<frate>
o100 while [#<bct> lt #<bctmax>]
       #<b> = [[#<bctmax>-1-#<bct>]*#<bdelta>] ; top ring first, the way in stays outside the ball
       #<cct> = 0
o200   while [#<cct> lt #<cctmax>]
o210      if [[#<bct> mod 2] eq 0]
              #<c> = [#<cct> * #<cdelta>]
o210      else
              #<c> = [360 - [1+ #<cct>] * #<cdelta>]
o210      endif
          g68.2 p1 j[90-#<b>] k#<c>  ; plane Z is the sphere radius at b, c
          g53.2                      ; solve the orientation, stay put
          g0 x0 y0 z[#<r>+#<rdelta>] b#<_orient_b> c#<_orient_c> ; one TCP turn and travel
          g1 z[#<r>+#<drilldepth>]
          g0 z[#<r>+#<rdelta>]
          #<cct> = [#<cct>+1]
o200   endwhile
       #<bct> = [#<bct>+1]
o100 endwhile

g69
g53 g0 z0         ; up, clear of the ball
g53 g0 x0 y0 b0 c0
m2
