; w-historical.ngc - the historical demo program, unchanged.
; It "drills" with W words, using W as a tool length substitute: a
; LinuxCNC-local hack, never a widely known convention, and it only
; ever looked right because the quill was not drawn.  With nothing
; contradicting it, the head compensation motion passed for drilling.
;
; It runs here with the quill drawing locked (m64 p0, back off with
; m65 p0 at the end): vismach draws the quill at home (see
; 5axisgui.hal), which reveals the hack for what it is.  The head does
; the same motion it always did, but now the drawn tool tip plunges
; along the tool axis while the real tip stays at the programmed point.
;
; Kept to show why the old trick appeared to work, and why to move to
; the new methods: drill with a point-to-point move (g53.5/g53.7, see
; g535-quill.ngc) or program the stroke in the tilted work
; plane (g532-fused-orient-move.ngc), which do the same and more, honestly.

        #<r>  =   60 ; sphere radius
  #<rdelta>   =    5 ; safe distance
#<drilldepth> =   -5
    #<zstart> =    0
    #<bctmax> =    8
    #<cctmax> =   16
    #<toolno> =  100
    #<frate>  = 1000

#<bct>    = 0
#<cct>    = 0
#<cdelta> = [360/#<cctmax>]
#<bdelta> = [90/#<bctmax>]

g49
g13.1 ; kinematics 0 (TCP), in case a previous run left a switch active
m64 p0 ; lock the quill drawing (vismach only): the head moves as
       ; always, but the drawn quill stays home so the drawn tip plunges
t#<toolno>m6g43

g53 g0 x0y0z#<zstart>b0c0 w0
g10l20 p0 x0 y0 z[#<r>+#<rdelta>] b0 c0 w0
g0 z0
f#<frate>
o100 while [#<bct> lt #<bctmax>]
       #<b> = [#<bct>*#<bdelta>]
       #<rnow> = [[#<r>+#<rdelta>]*[cos[#<b>]]]
       #<x> = [#<rnow>]
       #<y> = 0
       #<z> = [-#<rnow>]
       g0 x#<x> y#<y>
       m66e0l0 ; force sync
       g0 z#<z>
       g0b[-90+#<b>]
       #<cct> = 0
o200   while [#<cct> lt #<cctmax>]
o210      if [[#<bct> mod 2] eq 0]
              #<c> = [#<cct> * #<cdelta>]
o210      else
              #<c> = [360 - [1+ #<cct>] * #<cdelta>]
o210      endif
          #<x> = [#<rnow>*[cos[#<c>]]]
          #<y> = [#<rnow>*[sin[#<c>]]]
          g0 x#<x> y#<y> z#<z>  c#<c>
          f#<frate>
          g1 w[ #<drilldepth> - #<rdelta>]
          g0 w0
          m66e0l0 ;force sync
          #<cct> = [#<cct>+1]
o200   endwhile
       #<bct> = [#<bct>+1]
o100 endwhile

g0x0y0z0b0c0w0
g53 g0 x0y0z0
m65 p0 ; quill unlocked again
m2
